GLOBALSTAR M057         
1 25943U 99058A   25052.39585849 -.00000017  00000+0  68840-3 0  9996
2 25943  52.0005 316.8203 0002849 126.0877 234.0236 12.24813234152743
GLOBALSTAR M059         
1 25944U 99058B   25052.54694631 -.00000080  00000+0  71369-4 0  9995
2 25944  52.0011 160.0161 0001198 109.2815 263.7518 11.99973951560169
GLOBALSTAR M056         
1 25945U 99058C   25052.61332177 -.00000130  00000+0 -49552-3 0  9993
2 25945  51.9956 164.7613 0000268 359.5623 102.0178 12.04777409148697
GLOBALSTAR M031         
1 25946U 99058D   25052.45215479  .00000027  00000+0  11903-2 0  9992
2 25946  51.9963  64.4623 0001120 303.2148 206.7606 12.16029557150462
GLOBALSTAR M034         
1 25962U 99062B   25052.46344968 -.00000035  00000+0  73171-3 0  9998
2 25962  51.9892 312.2063 0013810 179.5602 351.8116 11.79444621124731
GLOBALSTAR M029         
1 25963U 99062C   25052.58286987 -.00000066  00000+0  24724-3 0  9992
2 25963  51.9814  48.0530 0002395 247.7874 274.5771 11.99891736155247
GLOBALSTAR M061         
1 25964U 99062D   25052.52828914 -.00000078  00000+0  31048-4 0  9990
2 25964  51.9786 134.5342 0006663 110.1623 351.3635 11.76770921107567
